{
    "links": {
        "self": "http://www.neowsapp.com/rest/v1/neo/3836882?api_key=iIulBulltgU6a56xZRHN4H3l9WmuAYTsLGpBGhQ2"
    },
    "id": "3836882",
    "neo_reference_id": "3836882",
    "name": "(2018 XV3)",
    "designation": "2018 XV3",
    "nasa_jpl_url": "http://ssd.jpl.nasa.gov/sbdb.cgi?sstr=3836882",
    "absolute_magnitude_h": 24.7,
    "estimated_diameter": {
        "kilometers": {
            "estimated_diameter_min": 0.0305179233,
            "estimated_diameter_max": 0.0682401509
        },
        "meters": {
            "estimated_diameter_min": 30.5179232594,
            "estimated_diameter_max": 68.2401509401
        },
        "miles": {
            "estimated_diameter_min": 0.0189629525,
            "estimated_diameter_max": 0.0424024508
        },
        "feet": {
            "estimated_diameter_min": 100.1244233463,
            "estimated_diameter_max": 223.8850168104
        }
    },
    "is_potentially_hazardous_asteroid": false,
    "close_approach_data": [
        {
            "close_approach_date": "1965-08-09",
            "close_approach_date_full": "1965-Aug-09 00:32",
            "epoch_date_close_approach": -138756480000,
            "relative_velocity": {
                "kilometers_per_second": "5.1981774824",
                "kilometers_per_hour": "18713.4389366368",
                "miles_per_hour": "11627.8032103786"
            },
            "miss_distance": {
                "astronomical": "0.4370862992",
                "lunar": "170.0265703888",
                "kilometers": "65387179.366502704",
                "miles": "40629709.2336931552"
            },
            "orbiting_body": "Earth"
        },
        {
            "close_approach_date": "1965-12-28",
            "close_approach_date_full": "1965-Dec-28 06:26",
            "epoch_date_close_approach": -126552840000,
            "relative_velocity": {
                "kilometers_per_second": "14.2684658458",
                "kilometers_per_hour": "51366.477045037",
                "miles_per_hour": "31917.1312505675"
            },
            "miss_distance": {
                "astronomical": "0.2988171687",
                "lunar": "116.2398786243",
                "kilometers": "44702411.956950669",
                "miles": "27776790.7631464722"
            },
            "orbiting_body": "Earth"
        },
        {
            "close_approach_date": "2009-01-08",
            "close_approach_date_full": "2009-Jan-08 03:22",
            "epoch_date_close_approach": 1231384920000,
            "relative_velocity": {
                "kilometers_per_second": "19.5897383841",
                "kilometers_per_hour": "70523.0581827481",
                "miles_per_hour": "43820.2857913859"
            },
            "miss_distance": {
                "astronomical": "0.483996951",
                "lunar": "188.274813939",
                "kilometers": "72404912.95609437",
                "miles": "44990326.681747506"
            },
            "orbiting_body": "Earth"
        },
        {
            "close_approach_date": "2013-12-25",
            "close_approach_date_full": "2013-Dec-25 20:58",
            "epoch_date_close_approach": 1388005080000,
            "relative_velocity": {
                "kilometers_per_second": "13.0363886992",
                "kilometers_per_hour": "46930.9993170192",
                "miles_per_hour": "29161.0978811778"
            },
            "miss_distance": {
                "astronomical": "0.2566116802",
                "lunar": "99.8219435978",
                "kilometers": "38388560.775041174",
                "miles": "23853545.5620052412"
            },
            "orbiting_body": "Earth"
        },
        {
            "close_approach_date": "2018-12-06",
            "close_approach_date_full": "2018-Dec-06 05:57",
            "epoch_date_close_approach": 1544075820000,
            "relative_velocity": {
                "kilometers_per_second": "7.6023332035",
                "kilometers_per_hour": "27368.3995324676",
                "miles_per_hour": "17005.6591428269"
            },
            "miss_distance": {
                "astronomical": "0.0429648167",
                "lunar": "16.7133136963",
                "kilometers": "6427445.063260429",
                "miles": "3993829.1659907602"
            },
            "orbiting_body": "Earth"
        }
    ],
    "orbital_data": {
        "orbit_id": "2",
        "orbit_determination_date": "2019-01-09 07:09:05",
        "first_observation_date": "2018-12-12",
        "last_observation_date": "2019-01-04",
        "data_arc_in_days": 23,
        "observations_used": 27,
        "orbit_uncertainty": "7",
        "minimum_orbit_intersection": ".00656629",
        "jupiter_tisserand_invariant": "4.690",
        "epoch_osculation": "2459000.5",
        "eccentricity": ".298488781504033",
        "semi_major_axis": "1.401640490826323",
        "inclination": "9.428340271008405",
        "ascending_node_longitude": "67.52804709671229",
        "orbital_period": "606.1126935407558",
        "perihelion_distance": ".9832665286128592",
        "perihelion_argument": "343.1186432711684",
        "aphelion_distance": "1.820014453039787",
        "perihelion_time": "2459046.570227500681",
        "mean_anomaly": "332.6366365908654",
        "mean_motion": ".5939489534478676",
        "equinox": "J2000",
        "orbit_class": {
            "orbit_class_type": "APO",
            "orbit_class_description": "Near-Earth asteroid orbits which cross the Earth’s orbit similar to that of 1862 Apollo",
            "orbit_class_range": "a (semi-major axis) > 1.0 AU; q (perihelion) < 1.017 AU"
        }
    },
    "is_sentry_object": false
}